[{"OBJECT_NAME":"STARLINK-3704","OBJECT_ID":"2022-025D","EPOCH":"2026-03-10T00:00:02.999808","MEAN_MOTION":15.08887845,"ECCENTRICITY":8.629e-5,"INCLINATION":53.0636,"RA_OF_ASC_NODE":34.439,"ARG_OF_PERICENTER":119.4207,"MEAN_ANOMALY":219.0687,"EPHEMERIS_TYPE":0,"CLASSIFICATION_TYPE":"U","NORAD_CAT_ID":51959,"ELEMENT_SET_NO":999,"REV_AT_EPOCH":554,"BSTAR":0.08095622,"MEAN_MOTION_DOT":0.0140974,"MEAN_MOTION_DDOT":0},{"OBJECT_NAME":"SATMAR","OBJECT_ID":"2025-135Z","EPOCH":"2026-03-09T20:30:41.171616","MEAN_MOTION":15.2332395,"ECCENTRICITY":8.237e-5,"INCLINATION":97.4487,"RA_OF_ASC_NODE":185.1397,"ARG_OF_PERICENTER":164.2564,"MEAN_ANOMALY":195.8698,"EPHEMERIS_TYPE":0,"CLASSIFICATION_TYPE":"U","NORAD_CAT_ID":64551,"ELEMENT_SET_NO":999,"REV_AT_EPOCH":3979,"BSTAR":0.00047484624,"MEAN_MOTION_DOT":0.0001121,"MEAN_MOTION_DDOT":0}]
